[{"OBJECT_NAME":"ZHUHAI-1 03E","OBJECT_ID":"2019-060F","EPOCH":"2026-03-09T22:00:09.912096","MEAN_MOTION":15.3740444,"ECCENTRICITY":0.00060218,"INCLINATION":97.5464,"RA_OF_ASC_NODE":215.7681,"ARG_OF_PERICENTER":27.0132,"MEAN_ANOMALY":333.1424,"EPHEMERIS_TYPE":0,"CLASSIFICATION_TYPE":"U","NORAD_CAT_ID":44539,"ELEMENT_SET_NO":999,"REV_AT_EPOCH":36049,"BSTAR":0.00065441196,"MEAN_MOTION_DOT":0.00023971,"MEAN_MOTION_DDOT":0},{"OBJECT_NAME":"STARLINK-30466","OBJECT_ID":"2023-146P","EPOCH":"2026-03-09T22:00:01.999584","MEAN_MOTION":15.06656743,"ECCENTRICITY":0.00023085,"INCLINATION":43.0004,"RA_OF_ASC_NODE":311.9092,"ARG_OF_PERICENTER":267.3679,"MEAN_ANOMALY":62.4608,"EPHEMERIS_TYPE":0,"CLASSIFICATION_TYPE":"U","NORAD_CAT_ID":57904,"ELEMENT_SET_NO":999,"REV_AT_EPOCH":572,"BSTAR":0.10518613,"MEAN_MOTION_DOT":0.01742724,"MEAN_MOTION_DDOT":0}]
